<?xml version="1.0" encoding="UTF-8"?>
<ndm xmlns:xsi="http://www.w3.org/2001/XMLSchema-instance" xsi:noNamespaceSchemaLocation="https://sanaregistry.org/r/ndmxml_unqualified/ndmxml-2.0.0-master-2.0.xsd">
<omm id="CCSDS_OMM_VERS" version="2.0">
<header><CREATION_DATE/><ORIGINATOR/></header><body><segment><metadata><OBJECT_NAME>KUIPER-00152</OBJECT_NAME><OBJECT_ID>2025-217L</OBJECT_ID><CENTER_NAME>EARTH</CENTER_NAME><REF_FRAME>TEME</REF_FRAME><TIME_SYSTEM>UTC</TIME_SYSTEM><MEAN_ELEMENT_THEORY>SGP4</MEAN_ELEMENT_THEORY></metadata><data><meanElements><EPOCH>2025-11-18T03:11:58.155072</EPOCH><MEAN_MOTION>15.38308138</MEAN_MOTION><ECCENTRICITY>.0002463</ECCENTRICITY><INCLINATION>51.8712</INCLINATION><RA_OF_ASC_NODE>183.0814</RA_OF_ASC_NODE><ARG_OF_PERICENTER>187.5912</ARG_OF_PERICENTER><MEAN_ANOMALY>172.5039</MEAN_ANOMALY></meanElements><tleParameters><EPHEMERIS_TYPE>0</EPHEMERIS_TYPE><CLASSIFICATION_TYPE>U</CLASSIFICATION_TYPE><NORAD_CAT_ID>65772</NORAD_CAT_ID><ELEMENT_SET_NO>999</ELEMENT_SET_NO><REV_AT_EPOCH>826</REV_AT_EPOCH><BSTAR>.56406E-3</BSTAR><MEAN_MOTION_DOT>.21301E-3</MEAN_MOTION_DOT><MEAN_MOTION_DDOT>0</MEAN_MOTION_DDOT></tleParameters></data></segment></body></omm>
<omm id="CCSDS_OMM_VERS" version="2.0">
<header><CREATION_DATE/><ORIGINATOR/></header><body><segment><metadata><OBJECT_NAME>KUIPER-00153</OBJECT_NAME><OBJECT_ID>2025-217M</OBJECT_ID><CENTER_NAME>EARTH</CENTER_NAME><REF_FRAME>TEME</REF_FRAME><TIME_SYSTEM>UTC</TIME_SYSTEM><MEAN_ELEMENT_THEORY>SGP4</MEAN_ELEMENT_THEORY></metadata><data><meanElements><EPOCH>2025-11-18T04:00:03.000096</EPOCH><MEAN_MOTION>15.11298081</MEAN_MOTION><ECCENTRICITY>.0011699</ECCENTRICITY><INCLINATION>51.8783</INCLINATION><RA_OF_ASC_NODE>186.2031</RA_OF_ASC_NODE><ARG_OF_PERICENTER>293.7681</ARG_OF_PERICENTER><MEAN_ANOMALY>110.3572</MEAN_ANOMALY></meanElements><tleParameters><EPHEMERIS_TYPE>0</EPHEMERIS_TYPE><CLASSIFICATION_TYPE>U</CLASSIFICATION_TYPE><NORAD_CAT_ID>65773</NORAD_CAT_ID><ELEMENT_SET_NO>999</ELEMENT_SET_NO><REV_AT_EPOCH>402</REV_AT_EPOCH><BSTAR>-.35413E-2</BSTAR><MEAN_MOTION_DOT>-.60263E-3</MEAN_MOTION_DOT><MEAN_MOTION_DDOT>0</MEAN_MOTION_DDOT></tleParameters></data></segment></body></omm>
<omm id="CCSDS_OMM_VERS" version="2.0">
<header><CREATION_DATE/><ORIGINATOR/></header><body><segment><metadata><OBJECT_NAME>KUIPER-00155</OBJECT_NAME><OBJECT_ID>2025-217N</OBJECT_ID><CENTER_NAME>EARTH</CENTER_NAME><REF_FRAME>TEME</REF_FRAME><TIME_SYSTEM>UTC</TIME_SYSTEM><MEAN_ELEMENT_THEORY>SGP4</MEAN_ELEMENT_THEORY></metadata><data><meanElements><EPOCH>2025-11-17T23:49:25.709952</EPOCH><MEAN_MOTION>15.36525598</MEAN_MOTION><ECCENTRICITY>.0005634</ECCENTRICITY><INCLINATION>51.8645</INCLINATION><RA_OF_ASC_NODE>184.3586</RA_OF_ASC_NODE><ARG_OF_PERICENTER>272.9398</ARG_OF_PERICENTER><MEAN_ANOMALY>87.0943</MEAN_ANOMALY></meanElements><tleParameters><EPHEMERIS_TYPE>0</EPHEMERIS_TYPE><CLASSIFICATION_TYPE>U</CLASSIFICATION_TYPE><NORAD_CAT_ID>65774</NORAD_CAT_ID><ELEMENT_SET_NO>999</ELEMENT_SET_NO><REV_AT_EPOCH>823</REV_AT_EPOCH><BSTAR>.12912E-2</BSTAR><MEAN_MOTION_DOT>.46663E-3</MEAN_MOTION_DOT><MEAN_MOTION_DDOT>0</MEAN_MOTION_DDOT></tleParameters></data></segment></body></omm>
<omm id="CCSDS_OMM_VERS" version="2.0">
<header><CREATION_DATE/><ORIGINATOR/></header><body><segment><metadata><OBJECT_NAME>KUIPER-00156</OBJECT_NAME><OBJECT_ID>2025-217P</OBJECT_ID><CENTER_NAME>EARTH</CENTER_NAME><REF_FRAME>TEME</REF_FRAME><TIME_SYSTEM>UTC</TIME_SYSTEM><MEAN_ELEMENT_THEORY>SGP4</MEAN_ELEMENT_THEORY></metadata><data><meanElements><EPOCH>2025-11-17T14:54:36.381888</EPOCH><MEAN_MOTION>15.38206118</MEAN_MOTION><ECCENTRICITY>.00026983</ECCENTRICITY><INCLINATION>51.8682</INCLINATION><RA_OF_ASC_NODE>185.6484</RA_OF_ASC_NODE><ARG_OF_PERICENTER>198.0120</ARG_OF_PERICENTER><MEAN_ANOMALY>162.0772</MEAN_ANOMALY></meanElements><tleParameters><EPHEMERIS_TYPE>0</EPHEMERIS_TYPE><CLASSIFICATION_TYPE>U</CLASSIFICATION_TYPE><NORAD_CAT_ID>65775</NORAD_CAT_ID><ELEMENT_SET_NO>999</ELEMENT_SET_NO><REV_AT_EPOCH>818</REV_AT_EPOCH><BSTAR>.12772172E-2</BSTAR><MEAN_MOTION_DOT>.48747E-3</MEAN_MOTION_DOT><MEAN_MOTION_DDOT>0</MEAN_MOTION_DDOT></tleParameters></data></segment></body></omm>
<omm id="CCSDS_OMM_VERS" version="2.0">
<header><CREATION_DATE/><ORIGINATOR/></header><body><segment><metadata><OBJECT_NAME>KUIPER-00158</OBJECT_NAME><OBJECT_ID>2025-217Q</OBJECT_ID><CENTER_NAME>EARTH</CENTER_NAME><REF_FRAME>TEME</REF_FRAME><TIME_SYSTEM>UTC</TIME_SYSTEM><MEAN_ELEMENT_THEORY>SGP4</MEAN_ELEMENT_THEORY></metadata><data><meanElements><EPOCH>2025-11-18T04:00:03.000096</EPOCH><MEAN_MOTION>15.22112510</MEAN_MOTION><ECCENTRICITY>.000445</ECCENTRICITY><INCLINATION>51.8735</INCLINATION><RA_OF_ASC_NODE>184.2616</RA_OF_ASC_NODE><ARG_OF_PERICENTER>243.0565</ARG_OF_PERICENTER><MEAN_ANOMALY>26.1946</MEAN_ANOMALY></meanElements><tleParameters><EPHEMERIS_TYPE>0</EPHEMERIS_TYPE><CLASSIFICATION_TYPE>U</CLASSIFICATION_TYPE><NORAD_CAT_ID>65776</NORAD_CAT_ID><ELEMENT_SET_NO>999</ELEMENT_SET_NO><REV_AT_EPOCH>346</REV_AT_EPOCH><BSTAR>.10148E-2</BSTAR><MEAN_MOTION_DOT>.23313E-3</MEAN_MOTION_DOT><MEAN_MOTION_DDOT>0</MEAN_MOTION_DDOT></tleParameters></data></segment></body></omm>
<omm id="CCSDS_OMM_VERS" version="2.0">
<header><CREATION_DATE/><ORIGINATOR/></header><body><segment><metadata><OBJECT_NAME>KUIPER-00163</OBJECT_NAME><OBJECT_ID>2025-217R</OBJECT_ID><CENTER_NAME>EARTH</CENTER_NAME><REF_FRAME>TEME</REF_FRAME><TIME_SYSTEM>UTC</TIME_SYSTEM><MEAN_ELEMENT_THEORY>SGP4</MEAN_ELEMENT_THEORY></metadata><data><meanElements><EPOCH>2025-11-18T04:00:03.000096</EPOCH><MEAN_MOTION>15.15780270</MEAN_MOTION><ECCENTRICITY>.000987</ECCENTRICITY><INCLINATION>51.8688</INCLINATION><RA_OF_ASC_NODE>185.1365</RA_OF_ASC_NODE><ARG_OF_PERICENTER>306.3382</ARG_OF_PERICENTER><MEAN_ANOMALY>189.0129</MEAN_ANOMALY></meanElements><tleParameters><EPHEMERIS_TYPE>0</EPHEMERIS_TYPE><CLASSIFICATION_TYPE>U</CLASSIFICATION_TYPE><NORAD_CAT_ID>65777</NORAD_CAT_ID><ELEMENT_SET_NO>999</ELEMENT_SET_NO><REV_AT_EPOCH>199</REV_AT_EPOCH><BSTAR>.14197E-2</BSTAR><MEAN_MOTION_DOT>.27266E-3</MEAN_MOTION_DOT><MEAN_MOTION_DDOT>0</MEAN_MOTION_DDOT></tleParameters></data></segment></body></omm>
<omm id="CCSDS_OMM_VERS" version="2.0">
<header><CREATION_DATE/><ORIGINATOR/></header><body><segment><metadata><OBJECT_NAME>KUIPER-00165</OBJECT_NAME><OBJECT_ID>2025-217S</OBJECT_ID><CENTER_NAME>EARTH</CENTER_NAME><REF_FRAME>TEME</REF_FRAME><TIME_SYSTEM>UTC</TIME_SYSTEM><MEAN_ELEMENT_THEORY>SGP4</MEAN_ELEMENT_THEORY></metadata><data><meanElements><EPOCH>2025-11-17T21:35:14.163072</EPOCH><MEAN_MOTION>15.37749004</MEAN_MOTION><ECCENTRICITY>.0003619</ECCENTRICITY><INCLINATION>51.8702</INCLINATION><RA_OF_ASC_NODE>184.5066</RA_OF_ASC_NODE><ARG_OF_PERICENTER>239.7318</ARG_OF_PERICENTER><MEAN_ANOMALY>120.3311</MEAN_ANOMALY></meanElements><tleParameters><EPHEMERIS_TYPE>0</EPHEMERIS_TYPE><CLASSIFICATION_TYPE>U</CLASSIFICATION_TYPE><NORAD_CAT_ID>65778</NORAD_CAT_ID><ELEMENT_SET_NO>999</ELEMENT_SET_NO><REV_AT_EPOCH>822</REV_AT_EPOCH><BSTAR>.60276E-3</BSTAR><MEAN_MOTION_DOT>.22379E-3</MEAN_MOTION_DOT><MEAN_MOTION_DDOT>0</MEAN_MOTION_DDOT></tleParameters></data></segment></body></omm>
<omm id="CCSDS_OMM_VERS" version="2.0">
<header><CREATION_DATE/><ORIGINATOR/></header><body><segment><metadata><OBJECT_NAME>KUIPER-00166</OBJECT_NAME><OBJECT_ID>2025-217T</OBJECT_ID><CENTER_NAME>EARTH</CENTER_NAME><REF_FRAME>TEME</REF_FRAME><TIME_SYSTEM>UTC</TIME_SYSTEM><MEAN_ELEMENT_THEORY>SGP4</MEAN_ELEMENT_THEORY></metadata><data><meanElements><EPOCH>2025-11-17T21:23:31.478784</EPOCH><MEAN_MOTION>15.37780500</MEAN_MOTION><ECCENTRICITY>.0003225</ECCENTRICITY><INCLINATION>51.8708</INCLINATION><RA_OF_ASC_NODE>184.4575</RA_OF_ASC_NODE><ARG_OF_PERICENTER>212.9884</ARG_OF_PERICENTER><MEAN_ANOMALY>147.0902</MEAN_ANOMALY></meanElements><tleParameters><EPHEMERIS_TYPE>0</EPHEMERIS_TYPE><CLASSIFICATION_TYPE>U</CLASSIFICATION_TYPE><NORAD_CAT_ID>65779</NORAD_CAT_ID><ELEMENT_SET_NO>999</ELEMENT_SET_NO><REV_AT_EPOCH>822</REV_AT_EPOCH><BSTAR>.51598E-3</BSTAR><MEAN_MOTION_DOT>.19111E-3</MEAN_MOTION_DOT><MEAN_MOTION_DDOT>0</MEAN_MOTION_DDOT></tleParameters></data></segment></body></omm>

</ndm>
