KUIPER-00152            
1 65772U 25217L   25322.13331198  .00021301  00000+0  56406-3 0  9997
2 65772  51.8712 183.0814 0002463 187.5912 172.5039 15.38308138  8269
KUIPER-00153            
1 65773U 25217M   25322.16670139 -.00060263  00000+0 -35413-2 0  9998
2 65773  51.8783 186.2031 0011699 293.7681 110.3572 15.11298081  4026
KUIPER-00155            
1 65774U 25217N   25321.99265868  .00046663  00000+0  12912-2 0  9993
2 65774  51.8645 184.3586 0005634 272.9398  87.0943 15.36525598  8236
KUIPER-00156            
1 65775U 25217P   25321.62125442  .00048747  00000+0  12772-2 0  9996
2 65775  51.8682 185.6484 0002698 198.0120 162.0772 15.38206118  8181
KUIPER-00158            
1 65776U 25217Q   25322.16670139  .00023313  00000+0  10148-2 0  9992
2 65776  51.8735 184.2616 0004450 243.0565  26.1946 15.22112510  3469
KUIPER-00163            
1 65777U 25217R   25322.16670139  .00027266  00000+0  14197-2 0  9992
2 65777  51.8688 185.1365 0009870 306.3382 189.0129 15.15780270  1993
KUIPER-00165            
1 65778U 25217S   25321.89946948  .00022379  00000+0  60276-3 0  9996
2 65778  51.8702 184.5066 0003619 239.7318 120.3311 15.37749004  8223
KUIPER-00166            
1 65779U 25217T   25321.89133656  .00019111  00000+0  51598-3 0  9998
2 65779  51.8708 184.4575 0003225 212.9884 147.0902 15.37780500  8226
